[{"OBJECT_NAME":"ACCENTURE-1","OBJECT_ID":"2025-276DF","EPOCH":"2026-03-09T18:24:17.968032","MEAN_MOTION":15.19190222,"ECCENTRICITY":0.0001861,"INCLINATION":97.4232,"RA_OF_ASC_NODE":144.079,"ARG_OF_PERICENTER":116.0656,"MEAN_ANOMALY":244.077,"EPHEMERIS_TYPE":0,"CLASSIFICATION_TYPE":"U","NORAD_CAT_ID":66767,"ELEMENT_SET_NO":999,"REV_AT_EPOCH":1533,"BSTAR":0.00024177646,"MEAN_MOTION_DOT":5.02e-5,"MEAN_MOTION_DDOT":0},{"OBJECT_NAME":"CZ-6A DEB","OBJECT_ID":"2024-140LQ","EPOCH":"2026-03-09T12:39:56.979648","MEAN_MOTION":14.85929139,"ECCENTRICITY":0.01771612,"INCLINATION":88.9207,"RA_OF_ASC_NODE":273.583,"ARG_OF_PERICENTER":149.2711,"MEAN_ANOMALY":211.9037,"EPHEMERIS_TYPE":0,"CLASSIFICATION_TYPE":"U","NORAD_CAT_ID":60965,"ELEMENT_SET_NO":999,"REV_AT_EPOCH":8358,"BSTAR":0.00081105729,"MEAN_MOTION_DOT":9.447e-5,"MEAN_MOTION_DDOT":0}]
